[{"OBJECT_NAME":"BUGSAT-1 (TITA)","OBJECT_ID":"2014-033E","EPOCH":"2026-03-09T23:14:58.322976","MEAN_MOTION":15.14502987,"ECCENTRICITY":0.00292569,"INCLINATION":98.0428,"RA_OF_ASC_NODE":155.8085,"ARG_OF_PERICENTER":157.4521,"MEAN_ANOMALY":202.8002,"EPHEMERIS_TYPE":0,"CLASSIFICATION_TYPE":"U","NORAD_CAT_ID":40014,"ELEMENT_SET_NO":999,"REV_AT_EPOCH":64081,"BSTAR":0.00030961592,"MEAN_MOTION_DOT":5.686e-5,"MEAN_MOTION_DDOT":0},{"OBJECT_NAME":"STARLINK-5176","OBJECT_ID":"2022-136C","EPOCH":"2026-03-09T23:19:28.374816","MEAN_MOTION":15.08831945,"ECCENTRICITY":0.00016148,"INCLINATION":53.2205,"RA_OF_ASC_NODE":343.0604,"ARG_OF_PERICENTER":98.1053,"MEAN_ANOMALY":262.0122,"EPHEMERIS_TYPE":0,"CLASSIFICATION_TYPE":"U","NORAD_CAT_ID":54053,"ELEMENT_SET_NO":999,"REV_AT_EPOCH":18688,"BSTAR":-4.3790357e-5,"MEAN_MOTION_DOT":-9.85e-6,"MEAN_MOTION_DDOT":0}]
